KUIPER-00231            
1 68580U 26072H   26099.50085479  .00018378  00000+0  49329-3 0  9994
2 68580  51.8735 149.0710 0002972 106.5140 253.6174 15.37990269   815
